
2021-022F
1 47937U 21022F   26175.29930024  .00007732  00000+0  24344-3 0  9995
2 47937  97.3889  75.9901 0011486  71.6619 288.5872 15.33145240290804

2021-022X
1 47953U 21022X   26174.54440792  .00102318  00000+0  66020-3 0  9991
2 47953  97.3896  91.9807 0005727  74.6798 285.5100 15.75806401291503

AII-BRAVO
1 48270U 21034C   26175.14249821  .00003307  00000+0  24674-3 0  9991
2 48270  97.5627 229.8954 0004189 223.9867 136.1025 15.03526189280667

ARKTIKA-M 1
1 47719U 21016A   26168.49069990 -.00000210  00000+0  00000+0 0  9999
2 47719  63.2922  57.5948 7288528 269.9420  14.6012  2.00622504 38796

CSS (TIANHE)
1 48274U 21035A   26175.27077788  .00020499  00000+0  23936-3 0  9992
2 48274  41.4689 278.8848 0007696 138.8892 221.2528 15.61092232294278

CUBEL
1 47448U 21006AM  26175.10842161  .00014860  00000+0  35646-3 0  9995
2 47448  97.2330 225.6272 0007816 141.0020 219.1792 15.41448746300827

DEKART
1 46493U 20068H   26175.30115990  .00010771  00000+0  29514-3 0  9990
2 46493  97.8742 185.0808 0007096 253.9961 106.0500 15.37486534316864

GLOBAL-9
1 47971U 21023G   26174.58265671  .00014807  00000+0  29519-3 0  9994
2 47971  44.9794 214.5739 0004028 352.7873   7.2958 15.46809049295932

GONETS-M 19
1 46488U 20068C   26175.23220265 -.00000023  00000+0 -23942-3 0  9998
2 46488  82.4974 342.6860 0014006  35.2608 324.9396 12.42892038260126

GONETS-M 20
1 47227U 20091A   26175.33124888  .00000059  00000+0  35217-3 0  9996
2 47227  82.5047 297.9951 0021541 162.5741 197.6083 12.42894188251965

GONETS-M 21
1 47228U 20091B   26175.30514492  .00000146  00000+0  98419-3 0  9998
2 47228  82.4971 296.7140 0015117 175.4178 184.7043 12.42887638251951

GONETS-M 22
1 47229U 20091C   26175.27821492 -.00000024  00000+0 -24363-3 0  9990
2 47229  82.5029 297.6327 0022453 158.2270 201.9770 12.42893115251908

GRUS-1B
1 47934U 21022C   26175.32017712  .00000075  00000+0  11022-4 0  9999
2 47934  97.5378  58.2851 0014713 300.0078  59.9684 14.98733502286965

ICEYE-X6
1 46497U 20068M   26175.24104682  .00002374  00000+0  17403-3 0  9997
2 46497  98.0981 169.2499 0009099  72.3043 287.9174 15.04558695314298

KSM1-A
1 46912U 20081H   26175.03315666  .00006913  00000+0  26574-3 0  9999
2 46912  36.8980  19.1188 0003764 347.7696  12.2961 15.26050844310222

KSM1-B
1 46914U 20081K   26174.97614317  .00006687  00000+0  26858-3 0  9991
2 46914  36.9033  26.7890 0006272 327.8806  32.1560 15.24592557313226

KSM1-C
1 46906U 20081B   26175.02641532  .00007385  00000+0  27696-3 0  9995
2 46906  36.8967  16.7159 0003575 285.9941  74.0414 15.26835708310215

KSM1-D
1 46907U 20081C   26175.29914751  .00006122  00000+0  24470-3 0  9996
2 46907  36.8978  24.1798 0004903 309.0897  50.9415 15.24806552310187

NETSAT-1
1 46506U 20068W   26175.24228123  .00010745  00000+0  32110-3 0  9998
2 46506  97.8747 176.5056 0004176   9.8651 350.2672 15.34782789316382

NETSAT-2
1 46507U 20068X   26175.28408282  .00020236  00000+0  41253-3 0  9993
2 46507  97.8621 184.0160 0002360   1.2129 358.9124 15.46266444316838

NETSAT-3
1 46505U 20068V   26175.00617603  .00016209  00000+0  37103-3 0  9994
2 46505  97.8655 182.0032 0003310 330.8691  29.2370 15.42883424316739

NETSAT-4
1 46504U 20068U   26175.25392071  .00015853  00000+0  34881-3 0  9993
2 46504  97.8606 184.0630 0003232 301.0366  59.0563 15.44068925316864

NORBI
1 46494U 20068J   26175.32953706  .00020832  00000+0  38998-3 0  9993
2 46494  97.8629 191.9241 0005680 214.7509 145.3370 15.48718677317316

R2
1 46913U 20081J   26175.25326031  .00006876  00000+0  26842-3 0  9998
2 46913  36.8985  17.7796 0008421 335.8331  24.2022 15.25515151313068

SALSAT
1 46495U 20068K   26175.27497564  .00006623  00000+0  23163-3 0  9993
2 46495  97.8854 178.7714 0007801 277.9982  82.0372 15.29885766316443

STARLINK-2342
1 47883U 21021Z   26175.25081980  .00168697  00000+0  75418-3 0  9994
2 47883  53.1532 112.6072 0002790 182.5304 177.5706 15.83228390293021

TIANQI-6
1 46810U 20076D   26174.89460422  .00003138  00000+0  20568-3 0  9997
2 46810  35.0003   7.2976 0010778 232.5314 127.4416 15.07221353309596

TYVAK-0130
1 48606U 21041BF  26174.91492265  .00007308  00000+0  27918-3 0  9997
2 48606  52.9947 354.8403 0009964 184.4974 175.5936 15.27640725281415

TYVAK-182A
1 48271U 21034D   26175.10655629  .00004516  00000+0  31210-3 0  9992
2 48271  97.5726 233.9036 0004617 315.2127  44.8727 15.06220292280871

UNISAT-7
1 47945U 21022P   26174.97964818  .00012593  00000+0  31057-3 0  9996
2 47945  97.3882  79.9749 0010656  58.4960 301.7326 15.40626359290906
