OBJECT_NAME,OBJECT_ID,EPOCH,MEAN_MOTION,ECCENTRICITY,INCLINATION,RA_OF_ASC_NODE,ARG_OF_PERICENTER,MEAN_ANOMALY,EPHEMERIS_TYPE,CLASSIFICATION_TYPE,NORAD_CAT_ID,ELEMENT_SET_NO,REV_AT_EPOCH,BSTAR,MEAN_MOTION_DOT,MEAN_MOTION_DDOT
GONETS-M 19,2020-068C,2026-06-24T05:34:22.308960,12.42892038,.00140066,82.4974,342.6860,35.2608,324.9396,0,U,46488,999,26012,-.23942492E-3,-.23E-6,0
DEKART,2020-068H,2026-06-24T07:13:40.215360,15.37486534,.00070962,97.8742,185.0808,253.9961,106.0500,0,U,46493,999,31686,.29514124E-3,.10771E-3,0
NORBI,2020-068J,2026-06-24T07:54:32.001984,15.48718677,.00056801,97.8629,191.9241,214.7509,145.3370,0,U,46494,999,31731,.38997867E-3,.20832E-3,0
SALSAT,2020-068K,2026-06-24T06:35:57.895296,15.29885766,.00078015,97.8854,178.7714,277.9982,82.0372,0,U,46495,999,31644,.23162762E-3,.6623E-4,0
ICEYE-X6,2020-068M,2026-06-24T05:47:06.445248,15.04558695,.00090996,98.0981,169.2499,72.3043,287.9174,0,U,46497,999,31429,.17402669E-3,.2374E-4,0
NETSAT-4,2020-068U,2026-06-24T06:05:38.749344,15.44068925,.00032324,97.8606,184.0630,301.0366,59.0563,0,U,46504,999,31686,.34881242E-3,.15853E-3,0
NETSAT-3,2020-068V,2026-06-24T00:08:53.608992,15.42883424,.00033106,97.8655,182.0032,330.8691,29.2370,0,U,46505,999,31673,.37102704E-3,.16209E-3,0
NETSAT-1,2020-068W,2026-06-24T05:48:53.098272,15.34782789,.00041766,97.8747,176.5056,9.8651,350.2672,0,U,46506,999,31638,.32110338E-3,.10745E-3,0
NETSAT-2,2020-068X,2026-06-24T06:49:04.755648,15.46266444,.00023609,97.8621,184.0160,1.2129,358.9124,0,U,46507,999,31683,.41253073E-3,.20236E-3,0
TIANQI-6,2020-076D,2026-06-23T21:28:13.804608,15.07221353,.00107781,35.0003,7.2976,232.5314,127.4416,0,U,46810,999,30959,.20568055E-3,.3138E-4,0
KSM1-C,2020-081B,2026-06-24T00:38:02.283648,15.26835708,.00035754,36.8967,16.7159,285.9941,74.0414,0,U,46906,999,31021,.27696015E-3,.7385E-4,0
KSM1-D,2020-081C,2026-06-24T07:10:46.344864,15.24806552,.00049037,36.8978,24.1798,309.0897,50.9415,0,U,46907,999,31018,.24469557E-3,.6122E-4,0
KSM1-A,2020-081H,2026-06-24T00:47:44.735424,15.26050844,.00037643,36.8980,19.1188,347.7696,12.2961,0,U,46912,999,31022,.26573707E-3,.6913E-4,0
R2,2020-081J,2026-06-24T06:04:41.690784,15.25515151,.00084216,36.8985,17.7796,335.8331,24.2022,0,U,46913,999,31306,.26842166E-3,.6876E-4,0
KSM1-B,2020-081K,2026-06-23T23:25:38.769888,15.24592557,.00062721,36.9033,26.7890,327.8806,32.1560,0,U,46914,999,31322,.26858166E-3,.6687E-4,0
GONETS-M 20,2020-091A,2026-06-24T07:56:59.903232,12.42894188,.00215413,82.5047,297.9951,162.5741,197.6083,0,U,47227,999,25196,.35216551E-3,.59E-6,0
GONETS-M 21,2020-091B,2026-06-24T07:19:24.521088,12.42887638,.00151174,82.4971,296.7140,175.4178,184.7043,0,U,47228,999,25195,.98418888E-3,.146E-5,0
GONETS-M 22,2020-091C,2026-06-24T06:40:37.769088,12.42893115,.00224538,82.5029,297.6327,158.2270,201.9770,0,U,47229,999,25190,-.24363358E-3,-.24E-6,0
CUBEL,2021-006AM,2026-06-24T02:36:07.627104,15.41448746,.00078162,97.2330,225.6272,141.0020,219.1792,0,U,47448,999,30082,.35645838E-3,.1486E-3,0
ARKTIKA-M 1,2021-016A,2026-06-17T11:46:36.471360,2.00622504,.72885287,63.2922,57.5948,269.9420,14.6012,0,U,47719,999,3879,0,-.21E-5,0
STARLINK-2342,2021-021Z,2026-06-24T06:01:10.830720,15.83228390,.00027904,53.1532,112.6072,182.5304,177.5706,0,U,47883,999,29302,.75418016E-3,.168697E-2,0
GRUS-1B,2021-022C,2026-06-24T07:41:03.303168,14.98733502,.00147139,97.5378,58.2851,300.0078,59.9684,0,U,47934,999,28696,.11022106E-4,.75E-6,0
2021-022F,2021-022F,2026-06-24T07:10:59.540736,15.33145240,.00114869,97.3889,75.9901,71.6619,288.5872,0,U,47937,999,29080,.24344289E-3,.7732E-4,0
UNISAT-7,2021-022P,2026-06-23T23:30:41.602752,15.40626359,.00106562,97.3882,79.9749,58.4960,301.7326,0,U,47945,999,29090,.310567E-3,.12593E-3,0
2021-022X,2021-022X,2026-06-23T13:03:56.844288,15.75806401,.00057279,97.3896,91.9807,74.6798,285.5100,0,U,47953,999,29150,.66020443E-3,.102318E-2,0
GLOBAL-9,2021-023G,2026-06-23T13:59:01.539744,15.46809049,.00040288,44.9794,214.5739,352.7873,7.2958,0,U,47971,999,29593,.29518598E-3,.14807E-3,0
AII-BRAVO,2021-034C,2026-06-24T03:25:11.845344,15.03526189,.00041892,97.5627,229.8954,223.9867,136.1025,0,U,48270,999,28066,.24673881E-3,.3307E-4,0
TYVAK-182A,2021-034D,2026-06-24T02:33:26.463456,15.06220292,.00046173,97.5726,233.9036,315.2127,44.8727,0,U,48271,999,28087,.31209587E-3,.4516E-4,0
CSS (TIANHE),2021-035A,2026-06-24T06:29:55.208832,15.61092232,.00076964,41.4689,278.8848,138.8892,221.2528,0,U,48274,999,29427,.23936011E-3,.20499E-3,0
TYVAK-0130,2021-041BF,2026-06-23T21:57:29.316960,15.27640725,.00099649,52.9947,354.8403,184.4974,175.5936,0,U,48606,999,28141,.27918287E-3,.7308E-4,0
